{
  "type": "FeatureCollection",
  "features": [
    {
      "type": "Feature",
      "properties": {
        "norad_id": 34141,
        "name": "COSMOS 2251 DEB",
        "group": "cosmos-2251-debris",
        "lat": -24.8362154612408,
        "lon": 32.125785484145375,
        "alt_km": 764.0521587780349,
        "timestamp": "2025-12-06T22:38:43.122877+00:00",
        "meta_object_name": "COSMOS 2251 DEB",
        "meta_object_id": "1993-036LN",
        "meta_epoch": "2025-12-06T15:02:15.455328",
        "meta_mean_motion": 14.49139419,
        "meta_eccentricity": 0.00477003,
        "meta_inclination": 74.0124,
        "meta_ra_of_asc_node": 40.3461,
        "meta_arg_of_pericenter": 128.6858,
        "meta_mean_anomaly": 352.7342,
        "meta_ephemeris_type": 0,
        "meta_classification_type": "U",
        "meta_norad_cat_id": 34141,
        "meta_element_set_no": 999,
        "meta_rev_at_epoch": 87605,
        "meta_bstar": 0.0028089582,
        "meta_mean_motion_dot": 0.00010829,
        "meta_mean_motion_ddot": 0,
        "tle_line1": "1 34141U 93036LN  25340.62656777  .00010829  00000+0  28090-2 0  9994",
        "tle_line2": "2 34141  74.0124  40.3461 0047700 128.6858 352.7342 14.49139419876054"
      },
      "geometry": {
        "type": "Point",
        "coordinates": [
          32.125785484145375,
          -24.8362154612408
        ]
      }
    },
    {
      "type": "Feature",
      "properties": {
        "norad_id": 34270,
        "name": "COSMOS 2251 DEB",
        "group": "cosmos-2251-debris",
        "lat": -39.79356631915647,
        "lon": -56.02120056550363,
        "alt_km": 713.1732572596729,
        "timestamp": "2025-12-06T22:38:43.122887+00:00",
        "meta_object_name": "COSMOS 2251 DEB",
        "meta_object_id": "1993-036LQ",
        "meta_epoch": "2025-12-06T08:05:15.129888",
        "meta_mean_motion": 14.65097534,
        "meta_eccentricity": 0.00477565,
        "meta_inclination": 74.0111,
        "meta_ra_of_asc_node": 318.9649,
        "meta_arg_of_pericenter": 113.71,
        "meta_mean_anomaly": 246.909,
        "meta_ephemeris_type": 0,
        "meta_classification_type": "U",
        "meta_norad_cat_id": 34270,
        "meta_element_set_no": 999,
        "meta_rev_at_epoch": 89002,
        "meta_bstar": 0.00060550262,
        "meta_mean_motion_dot": 3.276e-05,
        "meta_mean_motion_ddot": 0,
        "tle_line1": "1 34270U 93036LQ  25340.33698067  .00003276  00000+0  60550-3 0  9999",
        "tle_line2": "2 34270  74.0111 318.9649 0047756 113.7100 246.9090 14.65097534890027"
      },
      "geometry": {
        "type": "Point",
        "coordinates": [
          -56.02120056550363,
          -39.79356631915647
        ]
      }
    },
    {
      "type": "Feature",
      "properties": {
        "norad_id": 34271,
        "name": "COSMOS 2251 DEB",
        "group": "cosmos-2251-debris",
        "lat": 29.487274364435127,
        "lon": 21.262846170506343,
        "alt_km": 663.5231770554392,
        "timestamp": "2025-12-06T22:38:43.122897+00:00",
        "meta_object_name": "COSMOS 2251 DEB",
        "meta_object_id": "1993-036LR",
        "meta_epoch": "2025-12-06T03:05:41.750880",
        "meta_mean_motion": 14.70540007,
        "meta_eccentricity": 0.00194782,
        "meta_inclination": 74.0209,
        "meta_ra_of_asc_node": 212.1693,
        "meta_arg_of_pericenter": 267.2161,
        "meta_mean_anomaly": 251.3924,
        "meta_ephemeris_type": 0,
        "meta_classification_type": "U",
        "meta_norad_cat_id": 34271,
        "meta_element_set_no": 999,
        "meta_rev_at_epoch": 88137,
        "meta_bstar": 0.0028907826,
        "meta_mean_motion_dot": 0.00017617,
        "meta_mean_motion_ddot": 0,
        "tle_line1": "1 34271U 93036LR  25340.12895545  .00017617  00000+0  28908-2 0  9991",
        "tle_line2": "2 34271  74.0209 212.1693 0019478 267.2161 251.3924 14.70540007881370"
      },
      "geometry": {
        "type": "Point",
        "coordinates": [
          21.262846170506343,
          29.487274364435127
        ]
      }
    },
    {
      "type": "Feature",
      "properties": {
        "norad_id": 34273,
        "name": "COSMOS 2251 DEB",
        "group": "cosmos-2251-debris",
        "lat": 6.202919150331768,
        "lon": 100.29196282538068,
        "alt_km": 699.3666040319758,
        "timestamp": "2025-12-06T22:38:43.122907+00:00",
        "meta_object_name": "COSMOS 2251 DEB",
        "meta_object_id": "1993-036LT",
        "meta_epoch": "2025-12-06T14:27:23.028768",
        "meta_mean_motion": 14.61131963,
        "meta_eccentricity": 0.00143795,
        "meta_inclination": 74.0364,
        "meta_ra_of_asc_node": 99.1611,
        "meta_arg_of_pericenter": 224.7055,
        "meta_mean_anomaly": 147.7339,
        "meta_ephemeris_type": 0,
        "meta_classification_type": "U",
        "meta_norad_cat_id": 34273,
        "meta_element_set_no": 999,
        "meta_rev_at_epoch": 88532,
        "meta_bstar": 0.0018900822,
        "meta_mean_motion_dot": 9.295e-05,
        "meta_mean_motion_ddot": 0,
        "tle_line1": "1 34273U 93036LT  25340.60234987  .00009295  00000+0  18901-2 0  9998",
        "tle_line2": "2 34273  74.0364  99.1611 0014379 224.7055 147.7339 14.61131963885326"
      },
      "geometry": {
        "type": "Point",
        "coordinates": [
          100.29196282538068,
          6.202919150331768
        ]
      }
    },
    {
      "type": "Feature",
      "properties": {
        "norad_id": 34274,
        "name": "COSMOS 2251 DEB",
        "group": "cosmos-2251-debris",
        "lat": 14.172264988079018,
        "lon": 83.88832590145655,
        "alt_km": 691.6910207951641,
        "timestamp": "2025-12-06T22:38:43.122929+00:00",
        "meta_object_name": "COSMOS 2251 DEB",
        "meta_object_id": "1993-036LU",
        "meta_epoch": "2025-12-06T06:18:55.716768",
        "meta_mean_motion": 14.64654963,
        "meta_eccentricity": 0.00223988,
        "meta_inclination": 74.0052,
        "meta_ra_of_asc_node": 81.0445,
        "meta_arg_of_pericenter": 231.3351,
        "meta_mean_anomaly": 157.2051,
        "meta_ephemeris_type": 0,
        "meta_classification_type": "U",
        "meta_norad_cat_id": 34274,
        "meta_element_set_no": 999,
        "meta_rev_at_epoch": 88581,
        "meta_bstar": 0.0023262179,
        "meta_mean_motion_dot": 0.00012408,
        "meta_mean_motion_ddot": 0,
        "tle_line1": "1 34274U 93036LU  25340.26314487  .00012408  00000+0  23262-2 0  9991",
        "tle_line2": "2 34274  74.0052  81.0445 0022398 231.3351 157.2051 14.64654963885813"
      },
      "geometry": {
        "type": "Point",
        "coordinates": [
          83.88832590145655,
          14.172264988079018
        ]
      }
    },
    {
      "type": "Feature",
      "properties": {
        "norad_id": 34276,
        "name": "COSMOS 2251 DEB",
        "group": "cosmos-2251-debris",
        "lat": 65.22226171790409,
        "lon": -122.02386472435595,
        "alt_km": 706.8383384761173,
        "timestamp": "2025-12-06T22:38:43.122940+00:00",
        "meta_object_name": "COSMOS 2251 DEB",
        "meta_object_id": "1993-036LW",
        "meta_epoch": "2025-12-06T07:26:50.797824",
        "meta_mean_motion": 14.5715603,
        "meta_eccentricity": 0.00227561,
        "meta_inclination": 74.0235,
        "meta_ra_of_asc_node": 97.5434,
        "meta_arg_of_pericenter": 244.6936,
        "meta_mean_anomaly": 144.144,
        "meta_ephemeris_type": 0,
        "meta_classification_type": "U",
        "meta_norad_cat_id": 34276,
        "meta_element_set_no": 999,
        "meta_rev_at_epoch": 88499,
        "meta_bstar": 0.0016234391,
        "meta_mean_motion_dot": 7.328e-05,
        "meta_mean_motion_ddot": 0,
        "tle_line1": "1 34276U 93036LW  25340.31031016  .00007328  00000+0  16234-2 0  9999",
        "tle_line2": "2 34276  74.0235  97.5434 0022756 244.6936 144.1440 14.57156030884991"
      },
      "geometry": {
        "type": "Point",
        "coordinates": [
          -122.02386472435595,
          65.22226171790409
        ]
      }
    },
    {
      "type": "Feature",
      "properties": {
        "norad_id": 34297,
        "name": "COSMOS 2251 DEB",
        "group": "cosmos-2251-debris",
        "lat": -10.056502854378486,
        "lon": 117.78339013755789,
        "alt_km": 785.6141468269752,
        "timestamp": "2025-12-06T22:38:43.122950+00:00",
        "meta_object_name": "COSMOS 2251 DEB",
        "meta_object_id": "1993-036MT",
        "meta_epoch": "2025-12-06T15:53:58.109568",
        "meta_mean_motion": 14.36620426,
        "meta_eccentricity": 0.0017013,
        "meta_inclination": 74.0482,
        "meta_ra_of_asc_node": 295.3918,
        "meta_arg_of_pericenter": 5.3151,
        "meta_mean_anomaly": 171.957,
        "meta_ephemeris_type": 0,
        "meta_classification_type": "U",
        "meta_norad_cat_id": 34297,
        "meta_element_set_no": 999,
        "meta_rev_at_epoch": 87977,
        "meta_bstar": 0.00027427244,
        "meta_mean_motion_dot": 7.82e-06,
        "meta_mean_motion_ddot": 0,
        "tle_line1": "1 34297U 93036MT  25340.66247812  .00000782  00000+0  27427-3 0  9997",
        "tle_line2": "2 34297  74.0482 295.3918 0017013   5.3151 171.9570 14.36620426879778"
      },
      "geometry": {
        "type": "Point",
        "coordinates": [
          117.78339013755789,
          -10.056502854378486
        ]
      }
    }
  ]
}